#aV2022 12 13  0  0  0.00000000     288 DD+AD WGS84 FIT  NGA
## 2240 172800.00000000   300.00000000 59926 0.0000000000000
+   31     1  2  3  4  5  6  7  8  9 10 11 12 13 14 15 16 17
+         18 19 20 21 22 23 24 25 26 27 29 30 31 32  0  0  0
+          0  0  0  0  0  0  0  0  0  0  0  0  0  0  0  0  0
+          0  0  0  0  0  0  0  0  0  0  0  0  0  0  0  0  0
+          0  0  0  0  0  0  0  0  0  0  0  0  0  0  0  0  0
++         2  2  2  2  2  2  2  2  2  2  2  2  2  2  2  2  2
++         2  2  2  2  2  2  2  2  2  2  2  2  2  2  0  0  0
++         0  0  0  0  0  0  0  0  0  0  0  0  0  0  0  0  0
++         0  0  0  0  0  0  0  0  0  0  0  0  0  0  0  0  0
++         0  0  0  0  0  0  0  0  0  0  0  0  0  0  0  0  0
%c cc cc ccc ccc cccc cccc cccc cccc ccccc ccccc ccccc ccccc
%c cc cc ccc ccc cccc cccc cccc cccc ccccc ccccc ccccc ccccc
%f  0.0000000  0.000000000  0.00000000000  0.000000000000000
%f  0.0000000  0.000000000  0.00000000000  0.000000000000000
%i    0    0    0    0      0      0      0      0         0
%i    0    0    0    0      0      0      0      0         0
/*      NGA, ST. LOUIS,MO.                                  
/*   EPHEMERIS COMPUTED FROM 2 DAYS OF DATA                 
/*   EPOCHA v8 SMOOTHER                                     
/*   G2139 IERS2010 SATIGS SATAPC                           
*  2022 12 13  2 10  0.00000000
P  1  13196.521720  -9416.314734  20647.590653    238.530815                    
V  1   2005.009756  26886.804105  11148.453165     -0.052207                    
P  2 -11408.316096  13732.358338 -19102.379081   -633.315194                    
V  2  -4745.307907 -25128.901017 -14547.210528      0.019797                    
P  3  23250.517794 -12036.411932   3994.985823   -375.247306                    
V  3  -3073.087634   4853.796888  31644.077377      0.000121                    
P  4  19552.206288  -3386.296785 -17705.175628    -69.599432                    
V  4  18942.613036  12135.309792  18490.457976      0.071066                    
P  5 -21234.602257   1522.859684 -16125.557043   -107.853427                    
V  5  15296.969738 -13162.604687 -21500.883675     -0.014581                    
P  6  -6106.905502 -24707.739813  -7374.102259    538.943102                    
V  6   1432.572419  -9536.771522  30558.019944      0.077568                    
P  7   6905.011278 -22520.402826 -11347.908339    275.190964                    
V  7   3978.533454  15067.196641 -26981.358121     -0.053813                    
P  8  24771.090889   4919.131486   8773.382664    -98.367152                    
V  8   9052.505085   6809.010320 -28855.399529     -0.018683                    
P  9   9266.242280 -12513.885641 -21601.448567   -254.351161                    
V  9  24470.209345  12004.182171   3510.329942      0.060782                    
P 10  -2487.794449  17636.506892  19759.811359    -15.848091                    
V 10 -21327.631094  12699.464741 -14442.778719     -0.016408                    
P 11 -12106.396449 -16085.808368 -17333.638995    -55.962545                    
V 11   1513.116670 -22013.609402  19324.558156     -0.073060                    
P 12 -24106.824623   9880.680102   4598.701182   -315.264659                    
V 12   4095.197694  -5363.259627  31251.757462     -0.045196                    
P 13 -22954.178344 -13147.265928   3163.844520    440.965677                    
V 13  -2111.940463  -4357.382766 -31477.015496      0.065746                    
P 14   5377.789084 -18510.691545  18227.881462    -69.055497                    
V 14  20731.208159 -10575.029822 -16977.620411      0.062804                    
P 15 -25132.980792  -2086.915557   8317.671921     -4.572275                    
V 15  -9455.170783  -6761.186947 -28442.005925      0.032310                    
P 16  19081.944586   4221.367261 -18483.751760   -526.206178                    
V 16 -19482.097475  11696.572799 -17261.920393      0.005325                    
P 17  -4150.732053 -17810.837583  19672.631001    685.480329                    
V 17  21267.892558  11211.143862  15057.555528      0.030262                    
P 18  -5653.598846  24010.750090  -9654.302251    -56.922505                    
V 18  -2770.709656 -12193.889136 -28833.293869     -0.145827                    
P 19 -15174.415436 -18767.489618  11154.999904    249.762168                    
V 19  13133.221839   6203.526710  27474.041223      0.050744                    
P 20 -13084.094100  -8829.551356 -21317.140773    463.957406                    
V 20  19621.059466 -18844.139792  -4454.320434     -0.024909                    
P 21  15651.744964    401.776267  22104.663657    153.975879                    
V 21   3862.303829  26309.615997  -2535.464152     -0.009065                    
P 22  17120.244875  18269.102932   9550.459464    383.564171                    
V 22 -10976.320956  -4035.723422  28505.514780      0.078244                    
P 23 -13252.700776  19425.649482  12205.436076      0.002116                    
V 23 -13968.991864   7133.826907 -26650.415067      0.006193                    
P 24 -14936.712570   5169.453935  20968.463710     18.310801                    
V 24  -4540.712391 -27204.888350   3836.353757     -0.173157                    
P 25 -19681.018477  17087.189867  -4545.926633    401.506367                    
V 25  -6278.989635    427.152686  31103.594813      0.035585                    
P 26   9652.370046  12513.537544 -21446.636544    238.256754                    
V 26 -21752.843437  16159.093839    -27.223355      0.008633                    
P 27  23261.966067  13155.728847  -2009.447373    154.676377                    
V 27  -2981.440594    934.559015 -31552.470093     -0.099968                    
P 29 -12091.850408   9701.852551 -21618.690113   -573.622512                    
V 29 -23170.520136 -14414.751284   6427.193741     -0.026298                    
P 30   -976.141991 -26398.615004   -303.417691   -535.488501                    
V 30   3868.761500    320.062275 -31341.981744      0.006315                    
P 31   7254.855681  23688.921253  -9071.046546   -203.090314                    
V 31  -2678.532520  11546.642698  28970.822573     -0.011869                    
P 32   8397.565444  18067.767409  17814.585737   -327.702038                    
V 32 -20629.568889  -8462.994713  18269.570151     -0.131818                    
EOF
